{
  "type": "FeatureCollection",
  "features": [
    {
      "type": "Feature",
      "properties": {
        "norad_id": 66555,
        "name": "ELECTRON KICK STAGE R/B",
        "group": "last-30-days",
        "lat": 15.17579373569917,
        "lon": 63.54347451291573,
        "alt_km": 461.38678300669744,
        "timestamp": "2025-12-14T14:39:28.131792+00:00",
        "meta_object_name": "ELECTRON KICK STAGE R/B",
        "meta_object_id": "2025-267B",
        "meta_epoch": "2025-12-13T21:21:25.257888",
        "meta_mean_motion": 15.32886014,
        "meta_eccentricity": 0.00065085,
        "meta_inclination": 42.0199,
        "meta_ra_of_asc_node": 50.1825,
        "meta_arg_of_pericenter": 62.3193,
        "meta_mean_anomaly": 297.8305,
        "meta_ephemeris_type": 0,
        "meta_classification_type": "U",
        "meta_norad_cat_id": 66555,
        "meta_element_set_no": 999,
        "meta_rev_at_epoch": 358,
        "meta_bstar": 0.00082018633,
        "meta_mean_motion_dot": 0.00026477,
        "meta_mean_motion_ddot": 0,
        "tle_line1": "1 66555U 25267B   25347.88987567  .00026477  00000+0  82019-3 0  9996",
        "tle_line2": "2 66555  42.0199  50.1825 0006508  62.3193 297.8305 15.32886014  3586"
      },
      "geometry": {
        "type": "Point",
        "coordinates": [
          63.54347451291573,
          15.17579373569917
        ]
      }
    },
    {
      "type": "Feature",
      "properties": {
        "norad_id": 66557,
        "name": "STARLINK-35699",
        "group": "last-30-days",
        "lat": 37.92554629717582,
        "lon": -126.48700190851164,
        "alt_km": 409.30604889449023,
        "timestamp": "2025-12-14T14:39:28.131803+00:00",
        "meta_object_name": "STARLINK-35699",
        "meta_object_id": "2025-268A",
        "meta_epoch": "2025-12-13T19:36:42.331968",
        "meta_mean_motion": 15.50592436,
        "meta_eccentricity": 0.00016209,
        "meta_inclination": 42.9995,
        "meta_ra_of_asc_node": 114.8976,
        "meta_arg_of_pericenter": 271.7894,
        "meta_mean_anomaly": 88.2781,
        "meta_ephemeris_type": 0,
        "meta_classification_type": "U",
        "meta_norad_cat_id": 66557,
        "meta_element_set_no": 999,
        "meta_rev_at_epoch": 479,
        "meta_bstar": 0.0024435786,
        "meta_mean_motion_dot": 0.00145782,
        "meta_mean_motion_ddot": 0,
        "tle_line1": "1 66557U 25268A   25347.81715662  .00145782  00000+0  24436-2 0  9996",
        "tle_line2": "2 66557  42.9995 114.8976 0001620 271.7894  88.2781 15.50592436  4796"
      },
      "geometry": {
        "type": "Point",
        "coordinates": [
          -126.48700190851164,
          37.92554629717582
        ]
      }
    },
    {
      "type": "Feature",
      "properties": {
        "norad_id": 66558,
        "name": "STARLINK-35695",
        "group": "last-30-days",
        "lat": 37.11878476526992,
        "lon": -124.056085026349,
        "alt_km": 410.3787478631939,
        "timestamp": "2025-12-14T14:39:28.131813+00:00",
        "meta_object_name": "STARLINK-35695",
        "meta_object_id": "2025-268B",
        "meta_epoch": "2025-12-13T16:30:41.696640",
        "meta_mean_motion": 15.50654351,
        "meta_eccentricity": 0.00029632,
        "meta_inclination": 43.0006,
        "meta_ra_of_asc_node": 115.6497,
        "meta_arg_of_pericenter": 299.3158,
        "meta_mean_anomaly": 60.7406,
        "meta_ephemeris_type": 0,
        "meta_classification_type": "U",
        "meta_norad_cat_id": 66558,
        "meta_element_set_no": 999,
        "meta_rev_at_epoch": 477,
        "meta_bstar": 0.0015519669,
        "meta_mean_motion_dot": 0.00092037,
        "meta_mean_motion_ddot": 0,
        "tle_line1": "1 66558U 25268B   25347.68798260  .00092037  00000+0  15520-2 0  9995",
        "tle_line2": "2 66558  43.0006 115.6497 0002963 299.3158  60.7406 15.50654351  4771"
      },
      "geometry": {
        "type": "Point",
        "coordinates": [
          -124.056085026349,
          37.11878476526992
        ]
      }
    },
    {
      "type": "Feature",
      "properties": {
        "norad_id": 66559,
        "name": "STARLINK-35419",
        "group": "last-30-days",
        "lat": 36.37473512853585,
        "lon": -121.98257451826754,
        "alt_km": 411.58550092225414,
        "timestamp": "2025-12-14T14:39:28.131826+00:00",
        "meta_object_name": "STARLINK-35419",
        "meta_object_id": "2025-268C",
        "meta_epoch": "2025-12-13T16:30:11.401344",
        "meta_mean_motion": 15.50626619,
        "meta_eccentricity": 0.00046072,
        "meta_inclination": 43.0002,
        "meta_ra_of_asc_node": 115.6467,
        "meta_arg_of_pericenter": 276.7256,
        "meta_mean_anomaly": 83.308,
        "meta_ephemeris_type": 0,
        "meta_classification_type": "U",
        "meta_norad_cat_id": 66559,
        "meta_element_set_no": 999,
        "meta_rev_at_epoch": 477,
        "meta_bstar": 0.0015324685,
        "meta_mean_motion_dot": 0.00090791,
        "meta_mean_motion_ddot": 0,
        "tle_line1": "1 66559U 25268C   25347.68763196  .00090791  00000+0  15325-2 0  9994",
        "tle_line2": "2 66559  43.0002 115.6467 0004607 276.7256  83.3080 15.50626619  4775"
      },
      "geometry": {
        "type": "Point",
        "coordinates": [
          -121.98257451826754,
          36.37473512853585
        ]
      }
    },
    {
      "type": "Feature",
      "properties": {
        "norad_id": 66560,
        "name": "STARLINK-35411",
        "group": "last-30-days",
        "lat": 35.63608728708439,
        "lon": -120.05000409618322,
        "alt_km": 410.413952260742,
        "timestamp": "2025-12-14T14:39:28.131839+00:00",
        "meta_object_name": "STARLINK-35411",
        "meta_object_id": "2025-268D",
        "meta_epoch": "2025-12-13T16:29:42.127296",
        "meta_mean_motion": 15.50572925,
        "meta_eccentricity": 0.00023124,
        "meta_inclination": 43.0004,
        "meta_ra_of_asc_node": 115.6445,
        "meta_arg_of_pericenter": 316.0869,
        "meta_mean_anomaly": 43.9807,
        "meta_ephemeris_type": 0,
        "meta_classification_type": "U",
        "meta_norad_cat_id": 66560,
        "meta_element_set_no": 999,
        "meta_rev_at_epoch": 477,
        "meta_bstar": 0.0012956136,
        "meta_mean_motion_dot": 0.00076398,
        "meta_mean_motion_ddot": 0,
        "tle_line1": "1 66560U 25268D   25347.68729314  .00076398  00000+0  12956-2 0  9994",
        "tle_line2": "2 66560  43.0004 115.6445 0002312 316.0869  43.9807 15.50572925  4773"
      },
      "geometry": {
        "type": "Point",
        "coordinates": [
          -120.05000409618322,
          35.63608728708439
        ]
      }
    },
    {
      "type": "Feature",
      "properties": {
        "norad_id": 66561,
        "name": "STARLINK-35305",
        "group": "last-30-days",
        "lat": 33.901694743345644,
        "lon": -115.92270854849511,
        "alt_km": 410.95849167421966,
        "timestamp": "2025-12-14T14:39:28.131849+00:00",
        "meta_object_name": "STARLINK-35305",
        "meta_object_id": "2025-268E",
        "meta_epoch": "2025-12-13T18:01:27.272640",
        "meta_mean_motion": 15.50567943,
        "meta_eccentricity": 0.00053533,
        "meta_inclination": 42.9991,
        "meta_ra_of_asc_node": 115.2604,
        "meta_arg_of_pericenter": 238.662,
        "meta_mean_anomaly": 121.3717,
        "meta_ephemeris_type": 0,
        "meta_classification_type": "U",
        "meta_norad_cat_id": 66561,
        "meta_element_set_no": 999,
        "meta_rev_at_epoch": 478,
        "meta_bstar": 0.0016288996,
        "meta_mean_motion_dot": 0.00096406,
        "meta_mean_motion_ddot": 0,
        "tle_line1": "1 66561U 25268E   25347.75101010  .00096406  00000+0  16289-2 0  9995",
        "tle_line2": "2 66561  42.9991 115.2604 0005353 238.6620 121.3717 15.50567943  4788"
      },
      "geometry": {
        "type": "Point",
        "coordinates": [
          -115.92270854849511,
          33.901694743345644
        ]
      }
    },
    {
      "type": "Feature",
      "properties": {
        "norad_id": 66562,
        "name": "STARLINK-35579",
        "group": "last-30-days",
        "lat": 34.76115586966629,
        "lon": -117.903993453498,
        "alt_km": 410.5288995050505,
        "timestamp": "2025-12-14T14:39:28.131862+00:00",
        "meta_object_name": "STARLINK-35579",
        "meta_object_id": "2025-268F",
        "meta_epoch": "2025-12-13T16:29:12.763392",
        "meta_mean_motion": 15.50595602,
        "meta_eccentricity": 0.00022991,
        "meta_inclination": 43.0001,
        "meta_ra_of_asc_node": 115.6406,
        "meta_arg_of_pericenter": 314.819,
        "meta_mean_anomaly": 45.2483,
        "meta_ephemeris_type": 0,
        "meta_classification_type": "U",
        "meta_norad_cat_id": 66562,
        "meta_element_set_no": 999,
        "meta_rev_at_epoch": 477,
        "meta_bstar": 0.0012293675,
        "meta_mean_motion_dot": 0.00072496,
        "meta_mean_motion_ddot": 0,
        "tle_line1": "1 66562U 25268F   25347.68695328  .00072496  00000+0  12294-2 0  9993",
        "tle_line2": "2 66562  43.0001 115.6406 0002299 314.8190  45.2483 15.50595602  4778"
      },
      "geometry": {
        "type": "Point",
        "coordinates": [
          -117.903993453498,
          34.76115586966629
        ]
      }
    }
  ]
}